{"fetched_at":"2026-03-30T06:02:59Z","count":15439,"tles":[{"name":"STARLINK-30401","line1":"1 57818U 23138L   26087.58095807 -.00000405  00000+0 -51780-5 0  9997","line2":"2 57818  43.0037 127.8139 0001601 271.5711  88.4957 15.27559716141523","category":"Starlink"}]}